name,source,collection_date,satellite_number,classification,launch_year,launch_number,launch_piece,epoch_year,epoch_day,inclination_deg,right_ascension_deg,eccentricity,argument_of_perigee_deg,mean_anomaly_deg,mean_motion,orbital_period_minutes,approximate_altitude_km,mean_motion_derivative,mean_motion_second_derivative,drag_term,element_set_number,revolution_number,line1,line2,category
STARLINK-4029,celestrak_active,2025-07-29T17:08:40.675422,52685,U,2022,53,AF,2025,210.30118354,53.2178,66.9495,0.0001293,92.4461,267.6679,15.08842076,95.43742336623438,0,-1.14e-06,0.0,0.00010913,999,17739,1 52685U 22053AF  25210.30118354 -.00000114  00000+0  10913-4 0  9997,2 52685  53.2178  66.9495 0001293  92.4461 267.6679 15.08842076177395,important
STARLINK-4005,celestrak_active,2025-07-29T17:08:40.675427,52686,U,2022,53,AG,2025,210.33897433,53.2171,67.0629,0.0001425,90.0933,270.0223,15.08843213,95.43735144865579,0,-3.28e-06,0.0,-2.5379000000000002e-05,999,17740,1 52686U 22053AG  25210.33897433 -.00000328  00000+0 -25379-5 0  9994,2 52686  53.2171  67.0629 0001425  90.0933 270.0223 15.08843213177404,important
STARLINK-3981,celestrak_active,2025-07-29T17:08:40.675433,52687,U,2022,53,AH,2025,210.29750721,53.2161,66.9659,0.000128,87.0337,273.0802,15.08835693,95.43782710606914,0,-2.59e-06,0.0,1.7981000000000003e-05,999,17739,1 52687U 22053AH  25210.29750721 -.00000259  00000+0  17981-5 0  9990,2 52687  53.2161  66.9659 0001280  87.0337 273.0802 15.08835693177395,important
STARLINK-4032,celestrak_active,2025-07-29T17:08:40.675438,52688,U,2022,53,AJ,2025,210.2938108,53.2171,66.8669,0.0001315,91.0331,269.0812,15.08839016,95.43761691803972,0,-5.74e-06,0.0,-0.0001798,999,17739,1 52688U 22053AJ  25210.29381080 -.00000574  00000+0 -17980-4 0  9998,2 52688  53.2171  66.8669 0001315  91.0331 269.0812 15.08839016177394,important
STARLINK-4078,celestrak_active,2025-07-29T17:08:40.675444,52689,U,2022,53,AK,2025,209.86041043,53.2203,58.1681,6.35e-05,152.0218,208.0818,15.31050382,94.05307734673882,0,0.00025861,0.0,0.008594099999999999,999,17751,1 52689U 22053AK  25209.86041043  .00025861  00000+0  85941-3 0  9997,2 52689  53.2203  58.1681 0000635 152.0218 208.0818 15.31050382177515,important
STARLINK-4035,celestrak_active,2025-07-29T17:08:40.675451,52690,U,2022,53,AL,2025,210.30486551,53.2175,66.9324,0.0001286,85.6277,274.4862,15.0883716,95.43773431454989,0,2e-08,0.0,0.00018227,999,17739,1 52690U 22053AL  25210.30486551  .00000002  00000+0  18227-4 0  9991,2 52690  53.2175  66.9324 0001286  85.6277 274.4862 15.08837160177398,important
STARLINK-3993,celestrak_active,2025-07-29T17:08:40.675456,52692,U,2022,53,AN,2025,210.33427144,53.2184,66.5352,0.0001418,84.6111,275.5043,15.08842365,95.43740508638224,0,-1.46e-06,0.0,8.904500000000001e-05,999,17743,1 52692U 22053AN  25210.33427144 -.00000146  00000+0  89045-5 0  9996,2 52692  53.2184  66.5352 0001418  84.6111 275.5043 15.08842365177431,important
STARLINK-3946,celestrak_active,2025-07-29T17:08:40.675462,52693,U,2022,53,AP,2025,210.34166218,53.2174,66.7707,0.0001386,89.8676,270.2475,15.08843634,95.43732481957107,0,-1.09e-06,0.0,0.00011218,999,17743,1 52693U 22053AP  25210.34166218 -.00000109  00000+0  11218-4 0  9995,2 52693  53.2174  66.7707 0001386  89.8676 270.2475 15.08843634177435,important
STARLINK-4072,celestrak_active,2025-07-29T17:08:40.675468,52694,U,2022,53,AQ,2025,209.89270366,53.2178,68.7848,0.0001309,87.215,272.8992,15.08837455,95.43771565506373,0,9.8e-07,0.0,0.00024226000000000003,999,17696,1 52694U 22053AQ  25209.89270366  .00000098  00000+0  24226-4 0  9993,2 52694  53.2178  68.7848 0001309  87.2150 272.8992 15.08837455176965,important
STARLINK-4041,celestrak_active,2025-07-29T17:08:40.675474,52695,U,2022,53,AR,2025,209.99710681,53.2184,73.1161,0.0001211,87.0391,273.074,15.0883643,95.43778048890296,0,-2.32e-06,0.0,3.4854e-05,999,17732,1 52695U 22053AR  25209.99710681 -.00000232  00000+0  34854-5 0  9994,2 52695  53.2184  73.1161 0001211  87.0391 273.0740 15.08836430177325,important
STARLINK-4018,celestrak_active,2025-07-29T17:08:40.675480,52697,U,2022,53,AT,2025,210.35503688,53.2174,71.7107,0.0001329,85.4157,274.6987,15.0884737,95.43708851081472,0,-3.31e-06,0.0,-2.7206000000000003e-05,999,17737,1 52697U 22053AT  25210.35503688 -.00000331  00000+0 -27206-5 0  9999,2 52697  53.2174  71.7107 0001329  85.4157 274.6987 15.08847370177372,important
STARLINK-4030,celestrak_active,2025-07-29T17:08:40.675485,52698,U,2022,53,AU,2025,209.90144688,53.2165,73.7333,0.0001341,88.7782,271.3364,15.08831117,95.43811655098574,0,5e-07,0.0,0.00021222,999,17729,1 52698U 22053AU  25209.90144688  .00000050  00000+0  21222-4 0  9997,2 52698  53.2165  73.7333 0001341  88.7782 271.3364 15.08831117177296,important
STARLINK-3987,celestrak_active,2025-07-29T17:08:40.675491,52699,U,2022,53,AV,2025,210.27772702,53.2171,62.0847,0.0001297,87.8294,272.2847,15.08839103,95.43761141508539,0,-2.95e-06,0.0,-4.637199999999999e-06,999,17751,1 52699U 22053AV  25210.27772702 -.00000295  00000+0 -46372-6 0  9992,2 52699  53.2171  62.0847 0001297  87.8294 272.2847 15.08839103177517,important
STARLINK-4034,celestrak_active,2025-07-29T17:08:40.675496,52700,U,2022,53,AW,2025,210.32460386,53.2171,71.4872,0.0001264,88.9237,271.19,15.08838575,95.43764481233521,0,8e-08,0.0,0.00018603,999,17737,1 52700U 22053AW  25210.32460386  .00000008  00000+0  18603-4 0  9997,2 52700  53.2171  71.4872 0001264  88.9237 271.1900 15.08838575177379,important
STARLINK-4033,celestrak_active,2025-07-29T17:08:40.675501,52702,U,2022,53,AY,2025,210.35408421,53.2181,71.7425,0.0001415,91.8311,268.2843,15.08844848,95.43724803174726,0,0.0,0.0,0.00018069,999,17737,1 52702U 22053AY  25210.35408421  .00000000  00000+0  18069-4 0  9992,2 52702  53.2181  71.7425 0001415  91.8311 268.2843 15.08844848177376,important
STARLINK-4020,celestrak_active,2025-07-29T17:08:40.675507,52703,U,2022,53,AZ,2025,209.98194731,53.218,58.3981,0.0001348,92.156,267.9587,15.08842026,95.43742652883928,0,-2.34e-06,0.0,3.409600000000001e-05,999,17626,1 52703U 22053AZ  25209.98194731 -.00000234  00000+0  34096-5 0  9995,2 52703  53.2180  58.3981 0001348  92.1560 267.9587 15.08842026176263,important
STARLINK-3999,celestrak_active,2025-07-29T17:08:40.675513,52704,U,2022,53,BA,2025,209.99666266,53.2181,58.3191,0.0001402,88.0087,272.1065,15.08842562,95.43739262572578,0,-1.91e-06,0.0,6.1118e-05,999,17754,1 52704U 22053BA  25209.99666266 -.00000191  00000+0  61118-5 0  9991,2 52704  53.2181  58.3191 0001402  88.0087 272.1065 15.08842562177543,important
STARLINK-3844,celestrak_active,2025-07-29T17:08:40.675519,52705,U,2022,53,BB,2025,209.98562231,53.2175,58.3694,0.0001351,84.1582,275.9565,15.08843188,95.43735302995582,0,-1.269e-05,0.0,-0.00061663,999,17754,1 52705U 22053BB  25209.98562231 -.00001269  00000+0 -61663-4 0  9990,2 52705  53.2175  58.3694 0001351  84.1582 275.9565 15.08843188177546,important
STARLINK-3970,celestrak_active,2025-07-29T17:08:40.675524,52706,U,2022,53,BC,2025,209.98930426,53.218,58.3528,0.0001349,90.2003,269.9144,15.08839754,95.43757023782659,0,-3.2e-06,0.0,-2.0342e-05,999,17754,1 52706U 22053BC  25209.98930426 -.00000320  00000+0 -20342-5 0  9993,2 52706  53.2180  58.3528 0001349  90.2003 269.9144 15.08839754177542,important
STARLINK-4007,celestrak_active,2025-07-29T17:08:40.675530,52707,U,2022,53,BD,2025,210.29841164,53.2176,56.8512,0.0001319,91.37,268.7443,15.08842672,95.43738566800025,0,-4.69e-06,0.0,-0.00011370000000000001,999,17765,1 52707U 22053BD  25210.29841164 -.00000469  00000+0 -11370-4 0  9994,2 52707  53.2176  56.8512 0001319  91.3700 268.7443 15.08842672177651,important
STARLINK-3962,celestrak_active,2025-07-29T17:08:40.675535,52708,U,2022,53,BE,2025,209.87890899,53.2174,58.8339,0.000126,88.9294,271.1843,15.08833824,95.43794532538263,0,-5.61e-06,0.0,-0.00017175,999,17773,1 52708U 22053BE  25209.87890899 -.00000561  00000+0 -17175-4 0  9998,2 52708  53.2174  58.8339 0001260  88.9294 271.1843 15.08833824177734,important
STARLINK-4091,celestrak_active,2025-07-29T17:08:40.675719,52830,U,2022,62,A,2025,210.55420468,53.2188,316.0088,0.0001193,89.6306,270.4823,15.08844514,95.43726915787428,0,4.96e-06,0.0,0.00049271,999,17209,1 52830U 22062A   25210.55420468  .00000496  00000+0  49271-4 0  9999,2 52830  53.2188 316.0088 0001193  89.6306 270.4823 15.08844514172094,important
STARLINK-4089,celestrak_active,2025-07-29T17:08:40.675725,52831,U,2022,62,B,2025,210.54682369,53.2184,315.8485,0.0001072,85.1291,274.9824,15.08841056,95.4374878834156,0,6.16e-06,0.0,0.00056751,999,17209,1 52831U 22062B   25210.54682369  .00000616  00000+0  56751-4 0  9994,2 52831  53.2184 315.8485 0001072  85.1291 274.9824 15.08841056172097,important
STARLINK-4083,celestrak_active,2025-07-29T17:08:40.675730,52832,U,2022,62,C,2025,210.54314494,53.2194,315.8655,0.0001513,99.7961,260.3202,15.08853165,95.43672196890013,0,-5.886e-05,0.0,-0.0035189,999,17209,1 52832U 22062C   25210.54314494 -.00005886  00000+0 -35189-3 0  9993,2 52832  53.2194 315.8655 0001513  99.7961 260.3202 15.08853165172096,important
STARLINK-4086,celestrak_active,2025-07-29T17:08:40.675735,52833,U,2022,62,D,2025,210.53946966,53.2195,315.8813,0.0001184,86.9142,273.1986,15.0883705,95.43774127232626,0,1.1e-06,0.0,0.00024998,999,17209,1 52833U 22062D   25210.53946966  .00000110  00000+0  24998-4 0  9998,2 52833  53.2195 315.8813 0001184  86.9142 273.1986 15.08837050172093,important
STARLINK-4108,celestrak_active,2025-07-29T17:08:40.675741,52834,U,2022,62,E,2025,210.53210416,53.2184,315.914,0.0001189,85.1871,274.9257,15.08841299,95.43747251313805,0,7.06e-06,0.0,0.0006241500000000001,999,17209,1 52834U 22062E   25210.53210416  .00000706  00000+0  62415-4 0  9990,2 52834  53.2184 315.9140 0001189  85.1871 274.9257 15.08841299172091,important
